NORAD_CAT_ID,OBJECT_NAME,OBJECT_TYPE,EPOCH,MEAN_MOTION,ECCENTRICITY,INCLINATION,RA_OF_ASC_NODE,ARG_OF_PERICENTER,MEAN_ANOMALY,BSTAR,MEAN_MOTION_DOT,MEAN_MOTION_DDOT,TLE_LINE0,TLE_LINE1,TLE_LINE2,SEMIMAJOR_AXIS,PERIOD,APOGEE,PERIGEE,DECAYED
53014.0,STARLINK-4183,PAYLOAD,2024-06-06 12:06:55,15.08851348,0.0001405,53.219,82.5118,80.7029,279.4122,4.9043e-05,4.93e-06,0.0,0 STARLINK-4183,1 53014U 22076AE  24158.50480666  .00000493  00000-0  49043-4 0  9995,2 53014  53.2190  82.5118 0001405  80.7029 279.4122 15.08851348106654,6917.846,95.437,540.683,538.739,0.0
53014.0,STARLINK-4183,PAYLOAD,2024-06-06 18:28:29,15.08829546,0.0001645,53.2188,81.3262,87.3549,272.7632,7.174e-05,8.54e-06,0.0,0 STARLINK-4183,1 53014U 22076AE  24158.76978151  .00000854  00000-0  71740-4 0  9994,2 53014  53.2188  81.3262 0001645  87.3549 272.7632 15.08829546106695,6917.912,95.438,540.915,538.639,0.0
53014.0,STARLINK-4183,PAYLOAD,2024-06-08 00:40:48,15.08832627,0.0001159,53.2159,75.6731,90.7313,269.3812,0.00013271,1.824e-05,0.0,0 STARLINK-4183,1 53014U 22076AE  24160.02833965  .00001824  00000-0  13271-3 0  9991,2 53014  53.2159  75.6731 0001159  90.7313 269.3812 15.08832627106884,6917.903,95.438,540.57,538.966,0.0
53014.0,STARLINK-4183,PAYLOAD,2024-06-08 11:48:29,15.08855113,0.0001525,53.221,73.5911,95.422,264.6946,0.00012021,1.626e-05,0.0,0 STARLINK-4183,1 53014U 22076AE  24160.49200463  .00001626  00000-0  12021-3 0  9995,2 53014  53.2210  73.5911 0001525  95.4220 264.6946 15.08855113106482,6917.834,95.437,540.754,538.644,0.0
53014.0,STARLINK-4183,PAYLOAD,2024-06-09 00:31:36,15.08824776,0.0001567,53.2178,71.2137,101.8516,258.2652,-7.5014e-06,-4.07e-06,0.0,0 STARLINK-4183,1 53014U 22076AE  24161.02194862 -.00000407  00000-0 -75014-5 0  9991,2 53014  53.2178  71.2137 0001567 101.8516 258.2652 15.08824776107032,6917.927,95.439,540.876,538.708,0.0
53014.0,STARLINK-4183,PAYLOAD,2024-06-09 21:11:36,15.08838747,0.0001378,53.218,67.3464,109.3947,250.7194,0.00010073,1.316e-05,0.0,0 STARLINK-4183,1 53014U 22076AE  24161.88305936  .00001316  00000-0  10073-3 0  9991,2 53014  53.2180  67.3464 0001378 109.3947 250.7194 15.08838747107160,6917.884,95.438,540.703,538.796,0.0
53014.0,STARLINK-4183,PAYLOAD,2024-06-09 22:46:59,15.08838772,0.0001409,53.2176,67.0494,110.7021,249.4122,0.00012701,1.734e-05,0.0,0 STARLINK-4183,1 53014U 22076AE  24161.94930035  .00001734  00000-0  12701-3 0  9996,2 53014  53.2176  67.0494 0001409 110.7021 249.4122 15.08838772106702,6917.884,95.438,540.724,538.774,0.0
53014.0,STARLINK-4183,PAYLOAD,2024-06-10 00:22:22,15.08837117,0.0001065,53.217,66.7539,99.7325,260.3788,0.00013447,1.853e-05,0.0,0 STARLINK-4183,1 53014U 22076AE  24162.01554273  .00001853  00000-0  13447-3 0  9991,2 53014  53.2170  66.7539 0001065  99.7325 260.3788 15.08837117106716,6917.889,95.438,540.491,539.017,0.0
53014.0,STARLINK-4183,PAYLOAD,2024-06-10 21:02:24,15.08832505,0.0001304,53.2181,62.8904,102.7429,257.3709,0.00044266,6.763e-05,0.0,0 STARLINK-4183,1 53014U 22076AE  24162.87666753  .00006763  00000-0  44266-3 0  9990,2 53014  53.2181  62.8904 0001304 102.7429 257.3709 15.08832505107319,6917.903,95.438,540.67,538.866,0.0
53014.0,STARLINK-4183,PAYLOAD,2024-06-10 22:37:44,15.0887116,0.000163,53.2183,62.5905,100.849,259.2686,-0.00074575,-0.00012147,0.0,0 STARLINK-4183,1 53014U 22076AE  24162.94288153 -.00012147  00000-0 -74575-3 0  9993,2 53014  53.2183  62.5905 0001630 100.8490 259.2686 15.08871160106851,6917.785,95.436,540.778,538.523,0.0
53014.0,STARLINK-4183,PAYLOAD,2024-06-11 09:45:28,15.08847652,0.0001306,53.2188,60.5133,101.1219,258.992,0.00043773,6.687e-05,0.0,0 STARLINK-4183,1 53014U 22076AE  24163.40657926  .00006687  00000-0  43773-3 0  9999,2 53014  53.2188  60.5133 0001306 101.1219 258.9920 15.08847652106924,6917.857,95.437,540.625,538.819,0.0
53014.0,STARLINK-4183,PAYLOAD,2024-06-12 00:03:56,15.08841958,0.0001422,53.219,57.8376,90.3419,269.7736,9.166e-05,1.171e-05,0.0,0 STARLINK-4183,1 53014U 22076AE  24164.00274104  .00001171  00000-0  91660-4 0  9991,2 53014  53.2190  57.8376 0001422  90.3419 269.7736 15.08841958107485,6917.874,95.437,540.723,538.756,0.0
53014.0,STARLINK-4183,PAYLOAD,2024-06-12 20:43:59,15.08803555,0.0001517,53.2187,53.9714,100.636,259.4803,-0.00048543,-7.997e-05,0.0,0 STARLINK-4183,1 53014U 22076AE  24164.86388470 -.00007997  00000-0 -48543-3 0  9992,2 53014  53.2187  53.9714 0001517 100.6360 259.4803 15.08803555107616,6917.992,95.44,540.906,538.807,0.0
53014.0,STARLINK-4183,PAYLOAD,2024-06-12 22:19:22,15.08803908,0.0001599,53.2184,53.6731,95.6699,264.4476,-0.00046731,-7.71e-05,0.0,0 STARLINK-4183,1 53014U 22076AE  24164.93012592 -.00007710  00000-0 -46731-3 0  9999,2 53014  53.2184  53.6731 0001599  95.6699 264.4476 15.08803908107150,6917.991,95.44,540.962,538.75,0.0
53014.0,STARLINK-4183,PAYLOAD,2024-06-13 09:27:05,15.08810501,0.0001663,53.2186,51.593,105.1572,254.9605,-0.00024137,-4.124e-05,0.0,0 STARLINK-4183,1 53014U 22076AE  24165.39380860 -.00004124  00000-0 -24137-3 0  9998,2 53014  53.2186  51.5930 0001663 105.1572 254.9605 15.08810501107693,6917.971,95.439,540.986,538.685,0.0
53014.0,STARLINK-4183,PAYLOAD,2024-06-13 22:10:09,15.08838684,0.0001482,53.2172,49.2111,93.3532,266.763,0.0006169,9.543e-05,0.0,0 STARLINK-4183,1 53014U 22076AE  24165.92372513  .00009543  00000-0  61690-3 0  9996,2 53014  53.2172  49.2111 0001482  93.3532 266.7630 15.08838684107305,6917.884,95.438,540.775,538.724,0.0
53014.0,STARLINK-4183,PAYLOAD,2024-06-14 09:17:51,15.08872816,0.0001575,53.2169,47.1285,91.9366,268.1806,0.0011204,0.00017604,0.0,0 STARLINK-4183,1 53014U 22076AE  24166.38740036  .00017604  00000-0  11204-2 0  9998,2 53014  53.2169  47.1285 0001575  91.9366 268.1806 15.08872816107375,6917.78,95.435,540.735,538.556,0.0
53014.0,STARLINK-4183,PAYLOAD,2024-06-14 22:00:55,15.08880818,0.0001355,53.2152,44.7475,99.4008,260.7138,0.0010243,0.00016069,0.0,0 STARLINK-4183,1 53014U 22076AE  24166.91731066  .00016069  00000-0  10243-2 0  9996,2 53014  53.2152  44.7475 0001355  99.4008 260.7138 15.08880818107459,6917.756,95.435,540.558,538.683,0.0
53014.0,STARLINK-4183,PAYLOAD,2024-06-15 09:08:36,15.08901316,0.000122,53.2172,42.6655,88.3898,271.7234,0.0028156,0.00044883,0.0,0 STARLINK-4183,1 53014U 22076AE  24167.38098208  .00044883  00000-0  28156-2 0  9999,2 53014  53.2172  42.6655 0001220  88.3898 271.7234 15.08901316107527,6917.693,95.434,540.402,538.714,0.0
53014.0,STARLINK-4183,PAYLOAD,2024-06-15 21:51:42,15.08854153,0.00013,53.2172,40.2897,80.7682,279.3457,0.00157,0.00024797,0.0,0 STARLINK-4183,1 53014U 22076AE  24167.91090349  .00024797  00000-0  15700-2 0  9999,2 53014  53.2172  40.2897 0001300  80.7682 279.3457 15.08854153107601,6917.837,95.437,540.601,538.803,0.0
53014.0,STARLINK-4183,PAYLOAD,2024-06-16 08:59:23,15.08858864,0.0001389,53.2172,38.2071,84.9519,275.1631,0.0011723,0.00018428,0.0,0 STARLINK-4183,1 53014U 22076AE  24168.37458048  .00018428  00000-0  11723-2 0  9999,2 53014  53.2172  38.2071 0001389  84.9519 275.1631 15.08858864107672,6917.823,95.436,540.649,538.727,0.0
53014.0,STARLINK-4183,PAYLOAD,2024-06-16 21:42:29,15.08841129,0.0001229,53.2172,35.8293,89.3333,270.78,0.00038667,5.871e-05,0.0,0 STARLINK-4183,1 53014U 22076AE  24168.90450494  .00005871  00000-0  38667-3 0  9990,2 53014  53.2172  35.8293 0001229  89.3333 270.7800 15.08841129107751,6917.877,95.437,540.592,538.892,0.0
53014.0,STARLINK-4183,PAYLOAD,2024-06-17 21:33:16,15.088453,0.000121,53.2168,31.3696,85.5132,274.5998,0.00071227,0.00011068,0.0,0 STARLINK-4183,1 53014U 22076AE  24169.89810951  .00011068  00000-0  71227-3 0  9991,2 53014  53.2168  31.3696 0001210  85.5132 274.5998 15.08845300108373,6917.864,95.437,540.566,538.892,0.0
53014.0,STARLINK-4183,PAYLOAD,2024-06-18 00:44:02,15.0885008,0.0001195,53.2167,30.7745,85.2576,274.8552,0.00078658,0.00012256,0.0,0 STARLINK-4183,1 53014U 22076AE  24170.03058843  .00012256  00000-0  78658-3 0  9998,2 53014  53.2167  30.7745 0001195  85.2576 274.8552 15.08850080107921,6917.85,95.437,540.541,538.888,0.0
53014.0,STARLINK-4183,PAYLOAD,2024-06-18 21:24:03,15.08846887,0.0001311,53.2176,26.909,92.426,267.6883,0.00029099,4.347e-05,0.0,0 STARLINK-4183,1 53014U 22076AE  24170.89170736  .00004347  00000-0  29099-3 0  9995,2 53014  53.2176  26.9090 0001311  92.4260 267.6883 15.08846887108525,6917.859,95.437,540.631,538.817,0.0
53014.0,STARLINK-4183,PAYLOAD,2024-06-19 06:56:21,15.08852667,0.000134,53.2182,25.125,93.3909,266.7237,0.00032368,4.869e-05,0.0,0 STARLINK-4183,1 53014U 22076AE  24171.28914345  .00004869  00000-0  32368-3 0  9993,2 53014  53.2182  25.1250 0001340  93.3909 266.7237 15.08852667108114,6917.842,95.437,540.634,538.78,0.0
53014.0,STARLINK-4183,PAYLOAD,2024-06-19 19:39:27,15.08837932,0.0001916,53.2186,22.7435,120.006,240.1122,-5.0672e-05,-1.094e-05,0.0,0 STARLINK-4183,1 53014U 22076AE  24171.81906697 -.00001094  00000-0 -50672-4 0  9991,2 53014  53.2186  22.7435 0001916 120.0060 240.1122 15.08837932108668,6917.887,95.438,541.077,538.426,0.0
53014.0,STARLINK-4183,PAYLOAD,2024-06-20 13:08:42,15.08839487,0.0001508,53.2183,19.4784,100.9816,259.1346,8.409e-05,1.051e-05,0.0,0 STARLINK-4183,1 53014U 22076AE  24172.54770946  .00001051  00000-0  84090-4 0  9990,2 53014  53.2183  19.4784 0001508 100.9816 259.1346 15.08839487108304,6917.882,95.438,540.79,538.704,0.0
53014.0,STARLINK-4183,PAYLOAD,2024-06-20 21:05:38,15.0883388,0.0001487,53.2185,17.9893,94.0317,266.0846,-1.4029e-05,-5.11e-06,0.0,0 STARLINK-4183,1 53014U 22076AE  24172.87891369 -.00000511  00000-0 -14029-4 0  9996,2 53014  53.2185  17.9893 0001487  94.0317 266.0846 15.08833880108353,6917.899,95.438,540.793,538.735,0.0
53014.0,STARLINK-4183,PAYLOAD,2024-06-20 22:41:01,15.08835088,0.0001509,53.2189,17.6918,93.5501,266.5664,-3.4771e-06,-3.43e-06,0.0,0 STARLINK-4183,1 53014U 22076AE  24172.94515453 -.00000343  00000-0 -34771-5 0  9991,2 53014  53.2189  17.6918 0001509  93.5501 266.5664 15.08835088108834,6917.895,95.438,540.804,538.716,0.0
